STARLINK-30494          
1 57970U 23151G   26068.36049035 -.00001272  00000+0 -35691-4 0  9993
2 57970  43.0027 192.4566 0001155 241.5536 118.5200 15.28417441137406
STARLINK-33854          
1 63635U 25083B   26068.19480011  .00044577  00000+0  16212-2 0  9997
2 63635  43.0017   7.7991 0001241 252.8890 107.1826 15.27547745 49998
